OBJECT_NAME,OBJECT_ID,EPOCH,MEAN_MOTION,ECCENTRICITY,INCLINATION,RA_OF_ASC_NODE,ARG_OF_PERICENTER,MEAN_ANOMALY,EPHEMERIS_TYPE,CLASSIFICATION_TYPE,NORAD_CAT_ID,ELEMENT_SET_NO,REV_AT_EPOCH,BSTAR,MEAN_MOTION_DOT,MEAN_MOTION_DDOT
STARLINK-30255,2023-119E,2025-07-20T20:27:33.178176,15.02532756,0.0001604,43.0024,261.1689,277.0128,83.0532,0,U,57606,999,10821,9.62E-06,-7.40E-07,0
STARLINK-30252,2023-119F,2025-07-21T03:42:02.143008,15.02533718,0.0001318,43.0016,247.259,274.212,85.8572,0,U,57607,999,10834,-1.46E-05,-4.01E-06,0
STARLINK-30258,2023-119G,2025-07-20T20:51:31.811616,15.0253274,0.0001477,43.0022,261.2974,278.8007,81.2668,0,U,57608,999,10821,2.04E-06,-1.76E-06,0
STARLINK-30174,2023-119H,2025-07-20T20:40:20.373024,15.02534618,0.0001551,43.0019,261.2389,277.2909,82.7757,0,U,57609,999,10821,5.32E-06,-1.32E-06,0
STARLINK-30248,2023-119J,2025-07-21T03:08:03.000192,15.02532486,0.000152,43.0028,259.8179,276.9517,83.1153,0,U,57610,999,10819,2.56E-06,-1.69E-06,0
STARLINK-30052,2023-119K,2025-07-20T20:35:32.870112,15.02533009,0.0001738,43.0024,261.215,276.6998,83.3646,0,U,57611,999,10819,8.80E-07,-1.92E-06,0
STARLINK-30245,2023-119L,2025-07-20T20:30:45.095040,15.02532989,0.0001411,43.002,261.1904,279.5102,80.558,0,U,57612,999,10821,-5.35E-06,-2.76E-06,0
STARLINK-30041,2023-119M,2025-07-20T20:25:57.227520,15.02534062,0.000151,43.0024,261.1648,273.6738,86.3931,0,U,57613,999,10821,6.02E-05,6.10E-06,0
STARLINK-30244,2023-119N,2025-07-20T20:21:09.889632,15.02532927,0.0001829,43.0034,261.1391,275.0569,85.0064,0,U,57614,999,10821,-2.14E-05,-4.92E-06,0
STARLINK-30246,2023-119P,2025-07-20T13:53:27.421440,15.02530262,0.0001513,43.0025,262.5462,271.0217,89.0452,0,U,57615,999,10815,-1.06E-05,-3.47E-06,0
STARLINK-30075,2023-119Q,2025-07-21T04:10:22.900224,15.02535105,0.0001552,43.0024,260.1447,271.089,88.9774,0,U,57616,999,10824,-1.77E-05,-4.43E-06,0
STARLINK-30148,2023-119R,2025-07-21T04:05:35.196864,15.02533597,0.0001626,43.0026,260.1211,272.5487,87.5169,0,U,57617,999,10824,2.21E-05,9.40E-07,0
STARLINK-30249,2023-119S,2025-07-21T04:00:47.460672,15.02533341,0.0001454,43.0016,260.0955,278.2394,81.8283,0,U,57618,999,10819,3.81E-05,3.12E-06,0
STARLINK-30141,2023-119U,2025-07-20T21:20:17.627424,15.0253466,0.0001683,43.0033,261.4424,273.3477,86.7173,0,U,57620,999,10815,4.64E-05,4.23E-06,0
STARLINK-30150,2023-119V,2025-07-21T05:22:08.480064,15.02529714,0.0001435,43.0034,259.6609,274.1318,85.9361,0,U,57621,999,10825,-3.24E-05,-6.41E-06,0
STARLINK-30056,2023-119W,2025-07-21T05:17:20.415552,15.02529951,0.0001604,43.0027,259.6081,276.1412,83.9247,0,U,57622,999,10825,-2.68E-05,-5.66E-06,0
STARLINK-30100,2023-119X,2025-07-20T21:13:54.357024,15.02531445,0.0001474,43.002,261.4152,275.5844,84.4831,0,U,57623,999,10821,1.12E-05,-5.20E-07,0
HEAD-3A,2023-121A,2025-07-21T07:18:56.416896,14.59818551,0.0007896,45.0024,137.7757,353.5035,6.5718,0,U,57626,999,10321,1.51E-04,5.69E-06,0
HEAD-3B,2023-121B,2025-07-21T09:13:35.783616,14.60703356,0.0006681,45.0035,132.8799,343.6235,16.4405,0,U,57627,999,10328,1.59E-04,6.20E-06,0
HEAD-3C,2023-121C,2025-07-21T06:52:41.751840,14.6136496,0.0007125,44.9994,129.6416,342.2486,17.8122,0,U,57628,999,10331,1.64E-04,6.57E-06,0
HEAD-3D,2023-121D,2025-07-21T06:11:25.902816,14.62009914,0.0008343,45.0049,126.6539,339.2498,20.802,0,U,57629,999,10335,1.71E-04,7.03E-06,0
HEAD-3E,2023-121E,2025-07-21T08:29:59.752320,14.62911604,0.0008707,45.0027,121.66,331.0078,29.0295,0,U,57630,999,10342,1.83E-04,7.83E-06,0
STARLINK-30309,2023-122A,2025-07-21T04:33:55.283616,15.0253167,0.0001786,43.0035,272.9424,274.5454,85.5184,0,U,57632,999,10733,-6.71E-06,-2.94E-06,0
STARLINK-30306,2023-122B,2025-07-21T04:29:07.486944,15.02534675,0.0001652,43.0045,272.9138,271.1821,88.8832,0,U,57633,999,10734,1.25E-05,-3.50E-07,0
STARLINK-30323,2023-122C,2025-07-20T20:22:46.283520,15.02522636,0.0001658,43.0041,261.0956,285.4509,74.615,0,U,57634,999,10746,1.45E-04,1.75E-05,0
STARLINK-30329,2023-122D,2025-07-21T06:00:05.317056,15.02521296,0.000191,43.0034,272.5261,278.3956,81.667,0,U,57635,999,10730,-7.70E-05,-1.24E-05,0
STARLINK-30330,2023-122E,2025-07-21T05:55:16.106880,15.02530923,0.0001423,43.003,272.5042,276.6034,83.4646,0,U,57636,999,10735,3.75E-05,3.03E-06,0
STARLINK-30311,2023-122F,2025-07-20T16:59:50.994240,15.0253347,0.0001766,43.0026,275.3457,271.3318,88.7322,0,U,57637,999,10728,2.90E-06,-1.65E-06,0
STARLINK-30328,2023-122G,2025-07-20T20:32:19.506912,15.02534814,0.0002037,43.002,261.0864,285.1296,74.9321,0,U,57638,999,10745,4.52E-06,-1.43E-06,0
STARLINK-30326,2023-122H,2025-07-20T12:55:39.025632,15.0254437,0.0001747,43.0026,275.7885,261.8565,98.2079,0,U,57639,999,10726,-6.24E-05,-1.05E-05,0
STARLINK-30324,2023-122J,2025-07-20T21:37:26.651424,15.02532447,0.0001275,43.0018,274.212,270.4446,89.625,0,U,57640,999,10731,9.82E-06,-7.10E-07,0
STARLINK-30312,2023-122K,2025-07-20T21:32:39.028416,15.02534988,0.0001723,43.0036,274.1854,269.6915,90.373,0,U,57641,999,10731,8.53E-06,-8.90E-07,0
STARLINK-30263,2023-122L,2025-07-20T21:23:03.450624,15.0253323,0.0001396,43.0029,274.1351,272.7831,87.2851,0,U,57642,999,10731,9.76E-06,-7.20E-07,0
STARLINK-30280,2023-122M,2025-07-21T05:07:18.952320,15.02533568,0.0001526,43.0022,272.256,272.2322,87.8346,0,U,57643,999,10734,7.25E-06,-1.06E-06,0
STARLINK-30247,2023-122N,2025-07-21T05:12:07.167168,15.02530415,0.0001578,43.0027,272.2859,272.1915,87.8746,0,U,57644,999,10734,-5.03E-05,-8.83E-06,0
STARLINK-30277,2023-122P,2025-07-21T04:46:32.750688,15.27546633,0.0001881,43.0047,177.7411,277.4409,82.6229,0,U,57645,999,10846,-9.67E-05,-2.92E-05,0
STARLINK-30265,2023-122Q,2025-07-20T21:27:51.047712,15.02535947,0.0001626,43.0036,274.1611,274.4616,85.6041,0,U,57646,999,10731,2.90E-05,1.87E-06,0
STARLINK-30286,2023-122R,2025-07-20T13:05:14.097120,15.02535556,0.0001497,43.0028,275.8385,269.3777,90.6894,0,U,57647,999,10726,4.05E-05,3.43E-06,0
STARLINK-30243,2023-122S,2025-07-21T04:43:20.710272,15.02531686,0.0001803,43.0026,272.1332,268.9002,91.1634,0,U,57648,999,10735,-3.51E-06,-2.51E-06,0
STARLINK-30299,2023-122U,2025-07-20T13:00:26.522496,15.02543797,0.0001725,43.0031,275.816,269.0142,91.0503,0,U,57650,999,10726,-2.12E-05,-4.90E-06,0
STARLINK-30294,2023-122V,2025-07-20T12:51:17.482464,15.02532777,0.0001708,43.0051,263.0545,275.0462,85.0186,0,U,57651,999,10735,2.19E-04,2.76E-05,0
STARLINK-30276,2023-122W,2025-07-20T16:02:18.788064,15.0253232,0.000172,43.0029,275.0456,271.2718,88.7927,0,U,57652,999,10728,-2.11E-05,-4.89E-06,0
STARLINK-30289,2023-122X,2025-07-20T20:54:42.618240,15.02530742,0.0002019,43.0022,261.2211,287.1077,72.9544,0,U,57653,999,10746,-1.58E-05,-4.18E-06,0
GAOFEN-12 04,2023-123A,2025-07-21T09:35:34.941408,14.80727092,0.0001866,97.9087,120.3436,47.6679,312.4691,0,U,57654,999,10370,1.26E-04,9.20E-06,0
STARLINK-30267,2023-124A,2025-07-20T07:02:23.866656,15.30194277,0.0001309,53.1589,206.4907,88.3921,271.723,0,U,57663,999,10798,3.57E-05,6.98E-06,0
STARLINK-30298,2023-124C,2025-07-20T10:13:32.956896,15.30191754,0.0001193,53.1586,205.912,78.6752,281.4382,0,U,57665,999,10800,2.09E-05,2.59E-06,0
STARLINK-30301,2023-124D,2025-07-20T21:54:34.289568,15.30191603,0.0000655,53.1599,265.3948,62.3398,297.767,0,U,57666,999,10718,4.69E-05,1.03E-05,0
STARLINK-30275,2023-124E,2025-07-21T07:03:33.381504,15.30197232,0.0001018,53.1587,201.8834,77.224,282.8874,0,U,57667,999,10777,-5.57E-05,-2.01E-05,0
STARLINK-30278,2023-124F,2025-07-21T03:47:50.918208,15.30194613,0.000118,53.1594,202.4856,88.2579,271.8557,0,U,57668,999,10811,1.93E-05,2.13E-06,0
STARLINK-30271,2023-124G,2025-07-21T10:23:46.967136,15.30196113,0.0001101,53.1589,201.2183,94.3486,265.7641,0,U,57669,999,10815,1.80E-05,1.73E-06,0
STARLINK-30322,2023-124H,2025-07-20T16:55:33.020256,15.30192638,0.0001147,53.1592,204.6156,89.3669,270.7463,0,U,57670,999,10804,1.41E-05,5.80E-07,0
STARLINK-30296,2023-124J,2025-07-21T06:37:43.689504,15.30204406,0.0001187,53.1585,201.9103,78.0859,282.0275,0,U,57671,999,10783,5.23E-05,1.19E-05,0
STARLINK-30274,2023-124K,2025-07-20T17:42:33.090336,15.30189818,0.0001886,53.1594,204.3478,72.0391,288.0815,0,U,57672,999,10805,1.45E-05,7.10E-07,0
STARLINK-30316,2023-124L,2025-07-20T10:22:38.958240,15.30197211,0.0001105,53.1588,205.8941,83.3762,276.7365,0,U,57673,999,10800,5.01E-05,1.12E-05,0
STARLINK-30317,2023-124N,2025-07-21T06:25:05.367936,15.32493544,0.0001814,53.1583,201.2464,55.8394,304.278,0,U,57675,999,10814,6.91E-04,2.17E-04,0
STARLINK-30313,2023-124P,2025-07-21T04:45:29.348640,15.30184384,0.0001241,53.1587,202.2446,81.1716,278.9425,0,U,57676,999,10812,-2.46E-05,-1.09E-05,0
STARLINK-30303,2023-124Q,2025-07-21T03:43:10.139808,15.30194808,0.0001081,53.1592,201.9383,85.9094,274.2031,0,U,57677,999,10798,1.30E-05,2.70E-07,0
STARLINK-30320,2023-124R,2025-07-21T02:50:52.707840,15.30193579,0.000159,53.1589,189.6766,75.0297,285.0879,0,U,57678,999,10829,9.15E-06,-8.80E-07,0
STARLINK-30321,2023-124S,2025-07-20T23:16:12.305568,15.30196136,0.0001182,53.1595,202.9168,93.0912,267.0223,0,U,57679,999,10809,3.11E-05,5.61E-06,0
STARLINK-30283,2023-124T,2025-07-21T04:54:35.137440,15.30190242,0.0001244,53.1587,202.2184,78.742,281.3721,0,U,57680,999,10812,1.79E-05,1.72E-06,0
STARLINK-30273,2023-124U,2025-07-20T17:04:38.863488,15.30190379,0.0001063,53.1589,204.5521,91.8785,268.2337,0,U,57681,999,10804,1.01E-05,-6.10E-07,0
STARLINK-30297,2023-124V,2025-07-20T17:51:39.940128,15.30191856,0.0001183,53.1595,204.3879,50.8739,309.2367,0,U,57682,999,10805,1.69E-05,1.41E-06,0
STARLINK-30295,2023-124W,2025-07-20T07:11:30.628320,15.30191117,0.000114,53.1584,206.5025,77.9089,282.2039,0,U,57683,999,10798,2.34E-05,3.34E-06,0
CAPELLA-11 (ACADIA-1),2023-126A,2025-07-20T15:32:55.280256,14.79012116,0.000143,53.007,174.4661,148.4402,211.6661,0,U,57693,999,10303,4.17E-04,2.89E-05,0
JILIN-1 KUANFU 02A,2023-127A,2025-07-21T10:01:28.373664,15.10453894,0.0016823,97.5645,295.4661,23.1349,337.0635,0,U,57696,999,10535,2.61E-04,4.24E-05,0
STARLINK-30288,2023-129A,2025-07-20T14:11:26.166048,15.02529495,0.0001547,43.0043,301.2023,270.6347,89.4318,0,U,57698,999,10574,-1.88E-05,-4.58E-06,0
